From: horizons@ssd.jpl.nasa.gov (Horizons Ephemeris System)
Subject: [Horizons] SMALL BODY #C(500@10)_T(122P/de Vico) (1/1)
Date: February 22, 2021 at 9:30:42 AM PST

Automated mail xmit by MAIL_REQUEST, PID= 7353 Mon Feb 22 09:30:42 2021
++++++++++++++++++++++++++++++++ (part 1 of 1)  +++++++++++++++++++++++++++++++
*******************************************************************************
JPL/HORIZONS                    122P/de Vico               2021-Feb-22 09:30:42
Rec #:90000990 (+COV) Soln.date: 2001-Jul-02_16:09:03    # obs: 294 (1846-1996)

IAU76/J2000 helio. ecliptic osc. elements (au, days, deg., period=Julian yrs):

 EPOCH=  2450280.5 ! 1996-Jul-16.0000000 (TDB)    RMSW= n.a.
  EC= .9627088867609728   QR= .6593373359243724   TP= 2449996.5001733755
  OM= 79.62450068849807   W= 12.99609193700053    IN= 85.38275311444475
  A= 17.68081665189708    MA= 3.765031967057635   ADIST= 34.70229596786979
  PER= 74.346699797382    N= .013257163           ANGMOM= .019568756
  DAN= .66773             DDN= 20.88905           L= 80.6888684
  B= 12.9531808           MOID= .31681699         TP= 1995-Oct-06.0001733755

Comet physical (GM= km^3/s^2; RAD= km):
  GM= n.a.                RAD= n.a.
  M1=  7.5      M2=  n.a.     k1=  10.    k2= n.a.     PHCOF= n.a.

COMET comments 
1: soln ref.= JPL#27, data arc: 1846-03-02 to 1996-06-25
2: k1=10;
*******************************************************************************


*******************************************************************************
Ephemeris / MAIL_REQUEST Mon Feb 22 09:30:42 2021 Pasadena, USA  / Horizons
*******************************************************************************
Target body name: 122P/de Vico                    {source: JPL#27}
Center body name: Sun (10)                        {source: DE406}
Center-site name: BODY CENTER
*******************************************************************************
Start time      : A.D. 1990-Jan-01 00:00:00.0000 TDB
Stop  time      : A.D. 2020-Dec-31 00:00:00.0000 TDB
Step-size       : 200 steps
*******************************************************************************
Center geodetic : 0.00000000,0.00000000,0.0000000 {E-lon(deg),Lat(deg),Alt(km)}
Center cylindric: 0.00000000,0.00000000,0.0000000 {E-lon(deg),Dxy(km),Dz(km)}
Center radii    : 696000.0 x 696000.0 x 696000.0 k{Equator, meridian, pole}    
Small perturbers: Yes                             {source: SB406-CPV-2}
Output units    : AU-D
Output type     : GEOMETRIC cartesian states
Output format   : 6 (LT, range, and range-rate)
Reference frame : Ecliptic of J2000.0
*******************************************************************************
Initial IAU76/J2000 heliocentric ecliptic osculating elements (au, days, deg.):
 EPOCH=  2450280.5 ! 1996-Jul-16.0000000 (TDB)    RMSW= n.a.                  
  EC= .9627088867609728   QR= .6593373359243724   TP= 2449996.5001733755      
  OM= 79.62450068849807   W= 12.99609193700053    IN= 85.38275311444475       
 Equivalent ICRF heliocentric equatorial cartesian coordinates (au, au/d):
  X=-7.897756445823674E-01  Y=-3.928366881559356E+00  Z= 6.310765590973433E-01
 VX=-2.139734251711361E-03 VY=-1.070379933292618E-02 VZ=-3.164519594983152E-03
Comet physical (GM= km^3/s^2; RAD= km):                                        
  GM= n.a.                RAD= n.a.                                           
  M1=  7.5      M2=  n.a.     k1=  10.    k2= n.a.     PHCOF= n.a.            
*******************************************************************************
           JDTDB,            Calendar Date (TDB),                     LT,                     RG,                     RR,
**************************************************************************************************************************
$$SOE
2447892.500000000, A.D. 1990-Jan-01 00:00:00.0000,  8.936067590505035E-02,  1.547232140603261E+01, -4.450430189824033E-03,
2447949.110000000, A.D. 1990-Feb-26 14:38:24.0000,  8.789508422716368E-02,  1.521856207329924E+01, -4.515118553932555E-03,
2448005.720000000, A.D. 1990-Apr-24 05:16:48.0000,  8.640797418612065E-02,  1.496107695148118E+01, -4.582069259277872E-03,
2448062.330000000, A.D. 1990-Jun-19 19:55:12.0000,  8.489859650294772E-02,  1.469973630694578E+01, -4.651331922566088E-03,
2448118.940000000, A.D. 1990-Aug-15 10:33:36.0000,  8.336619658344439E-02,  1.443440948575738E+01, -4.722931235279715E-03,
2448175.550000000, A.D. 1990-Oct-11 01:12:00.0000,  8.180997039025725E-02,  1.416495727316375E+01, -4.797116482711761E-03,
2448232.160000000, A.D. 1990-Dec-06 15:50:24.0000,  8.022902856357060E-02,  1.389122568128628E+01, -4.874157186133748E-03,
2448288.770000000, A.D. 1991-Feb-01 06:28:48.0000,  7.862241732544291E-02,  1.361304956859362E+01, -4.954164463231799E-03,
2448345.380000000, A.D. 1991-Mar-29 21:07:12.0000,  7.698913319034402E-02,  1.333025518695224E+01, -5.037353370826191E-03,
2448401.990000000, A.D. 1991-May-25 11:45:36.0000,  7.532808301414411E-02,  1.304265326432332E+01, -5.124088167014391E-03,
2448458.600000000, A.D. 1991-Jul-21 02:24:00.0000,  7.363805180288986E-02,  1.275003343102511E+01, -5.214672128038572E-03,
2448515.210000000, A.D. 1991-Sep-15 17:02:24.0000,  7.191774466866849E-02,  1.245217148416555E+01, -5.309309925598441E-03,
2448571.820000000, A.D. 1991-Nov-11 07:40:48.0000,  7.016580060186631E-02,  1.214883177223503E+01, -5.408277713687671E-03,
2448628.430000000, A.D. 1992-Jan-06 22:19:12.0000,  6.838072320877275E-02,  1.183975520269416E+01, -5.512084296278103E-03,
2448685.040000000, A.D. 1992-Mar-03 12:57:36.0000,  6.656083316341486E-02,  1.152465100926420E+01, -5.621308646674420E-03,
2448741.650000000, A.D. 1992-Apr-29 03:36:00.0000,  6.470428956260872E-02,  1.120320044943957E+01, -5.736382121807982E-03,
2448798.260000000, A.D. 1992-Jun-24 18:14:24.0000,  6.280909486703318E-02,  1.087505766000823E+01, -5.857840314656029E-03,
2448854.870000000, A.D. 1992-Aug-20 08:52:48.0000,  6.087304027553993E-02,  1.053984019890669E+01, -5.986471111616066E-03,
2448911.480000000, A.D. 1992-Oct-15 23:31:12.0000,  5.889364605802654E-02,  1.019711871417720E+01, -6.123099219339925E-03,
2448968.090000000, A.D. 1992-Dec-11 14:09:36.0000,  5.686815504234308E-02,  9.846415816260611E+00, -6.268593311476803E-03,
2449024.700000000, A.D. 1993-Feb-06 04:48:00.0000,  5.479349751309927E-02,  9.487200000413237E+00, -6.424081229574808E-03,
2449081.310000000, A.D. 1993-Apr-03 19:26:24.0000,  5.266617502763305E-02,  9.118865530065374E+00, -6.591026356593668E-03,
2449137.920000000, A.D. 1993-May-30 10:04:48.0000,  5.048216403954847E-02,  8.740715749754216E+00, -6.771127404862292E-03,
2449194.530000000, A.D. 1993-Jul-26 00:43:12.0000,  4.823686930414188E-02,  8.351955017523450E+00, -6.966257586535816E-03,
2449251.140000000, A.D. 1993-Sep-20 15:21:36.0000,  4.592500748702926E-02,  7.951668552381799E+00, -7.178784469235397E-03,
2449307.750000000, A.D. 1993-Nov-16 06:00:00.0000,  4.354039114905432E-02,  7.538785032449297E+00, -7.411891120876274E-03,
2449364.360000000, A.D. 1994-Jan-11 20:38:24.0000,  4.107566835313741E-02,  7.112031509280764E+00, -7.669548473358480E-03,
2449420.970000000, A.D. 1994-Mar-09 11:16:48.0000,  3.852202775634136E-02,  6.669882346139882E+00, -7.956757731226349E-03,
2449477.580000000, A.D. 1994-May-05 01:55:12.0000,  3.586876706698167E-02,  6.210484498664061E+00, -8.280228577783285E-03,
2449534.190000000, A.D. 1994-Jun-30 16:33:36.0000,  3.310261368343884E-02,  5.731539887121116E+00, -8.649127206251090E-03,
2449590.800000000, A.D. 1994-Aug-26 07:12:00.0000,  3.020675087758484E-02,  5.230136785296365E+00, -9.076159258306012E-03,
2449647.410000000, A.D. 1994-Oct-21 21:50:24.0000,  2.715938426009859E-02,  4.702501611656224E+00, -9.579551731846169E-03,
2449704.020000000, A.D. 1994-Dec-17 12:28:48.0000,  2.393139061027152E-02,  4.143591836848510E+00, -1.018668802941812E-02,
2449760.630000000, A.D. 1995-Feb-12 03:07:12.0000,  2.048239424626064E-02,  3.546416628271129E+00, -1.094027474181291E-02,
2449817.240000000, A.D. 1995-Apr-09 17:45:36.0000,  1.675434768048456E-02,  2.900925375008533E+00, -1.190733912630403E-02,
2449873.850000000, A.D. 1995-Jun-05 08:24:00.0000,  1.266308331970522E-02,  2.192544910045566E+00, -1.317481736316441E-02,
2449930.460000000, A.D. 1995-Jul-31 23:02:24.0000,  8.121494666766817E-03,  1.406193210927741E+00, -1.451213080291021E-02,
2449987.070000000, A.D. 1995-Sep-26 13:40:48.0000,  3.969984390668674E-03,  6.873814890861492E-01, -5.858810458335363E-03,
2450043.680000000, A.D. 1995-Nov-22 04:19:12.0000,  6.535213651392924E-03,  1.131537167186183E+00,  1.440157277121565E-02,
2450100.290000000, A.D. 1996-Jan-17 18:57:36.0000,  1.119780109346076E-02,  1.938839157203112E+00,  1.366388642097821E-02,
2450156.900000000, A.D. 1996-Mar-14 09:36:00.0000,  1.543328207391587E-02,  2.672189955806864E+00,  1.229387217055035E-02,
2450213.510000000, A.D. 1996-May-10 00:14:24.0000,  1.927196312651113E-02,  3.336836976652022E+00,  1.123595873680028E-02,
2450270.120000000, A.D. 1996-Jul-05 14:52:48.0000,  2.280682108616214E-02,  3.948878659668233E+00,  1.042017674385266E-02,
2450326.730000000, A.D. 1996-Aug-31 05:31:12.0000,  2.610369510948246E-02,  4.519714701443616E+00,  9.769901317708288E-03,
2450383.340000000, A.D. 1996-Oct-26 20:09:36.0000,  2.920797191487117E-02,  5.057203568664145E+00,  9.235546001972482E-03,
2450439.950000000, A.D. 1996-Dec-22 10:48:00.0000,  3.215199342551375E-02,  5.566945091740084E+00,  8.785384976982932E-03,
2450496.560000000, A.D. 1997-Feb-17 01:26:24.0000,  3.495965572905491E-02,  6.053076749989275E+00,  8.398594694363000E-03,
2450553.170000000, A.D. 1997-Apr-14 16:04:48.0000,  3.764921840207149E-02,  6.518760091091095E+00,  8.061006700191638E-03,
2450609.780000000, A.D. 1997-Jun-10 06:43:12.0000,  4.023502835183990E-02,  6.966479205036077E+00,  7.762482984545340E-03,
2450666.390000000, A.D. 1997-Aug-05 21:21:36.0000,  4.272857461656716E-02,  7.398223357124476E+00,  7.495539289894434E-03,
